[{"OBJECT_NAME":"STARLINK-35298","OBJECT_ID":"2025-221V","EPOCH":"2026-03-09T10:23:45.572640","MEAN_MOTION":15.30197295,"ECCENTRICITY":0.00014475,"INCLINATION":53.1601,"RA_OF_ASC_NODE":89.5677,"ARG_OF_PERICENTER":83.5651,"MEAN_ANOMALY":276.5515,"EPHEMERIS_TYPE":0,"CLASSIFICATION_TYPE":"U","NORAD_CAT_ID":65842,"ELEMENT_SET_NO":999,"REV_AT_EPOCH":2469,"BSTAR":0.00064421888,"MEAN_MOTION_DOT":0.00018767,"MEAN_MOTION_DDOT":0},{"OBJECT_NAME":"CZ-4B DEB","OBJECT_ID":"2006-015E","EPOCH":"2026-03-09T20:34:53.082912","MEAN_MOTION":15.19885806,"ECCENTRICITY":0.00461993,"INCLINATION":98.0565,"RA_OF_ASC_NODE":201.7753,"ARG_OF_PERICENTER":62.4887,"MEAN_ANOMALY":298.1031,"EPHEMERIS_TYPE":0,"CLASSIFICATION_TYPE":"U","NORAD_CAT_ID":29538,"ELEMENT_SET_NO":999,"REV_AT_EPOCH":5389,"BSTAR":0.0022587151,"MEAN_MOTION_DOT":0.00050103,"MEAN_MOTION_DDOT":0}]
